OBJECT_NAME,OBJECT_ID,EPOCH,MEAN_MOTION,ECCENTRICITY,INCLINATION,RA_OF_ASC_NODE,ARG_OF_PERICENTER,MEAN_ANOMALY,EPHEMERIS_TYPE,CLASSIFICATION_TYPE,NORAD_CAT_ID,ELEMENT_SET_NO,REV_AT_EPOCH,BSTAR,MEAN_MOTION_DOT,MEAN_MOTION_DDOT
SL-16 R/B,1996-051B,2026-06-08T19:35:26.287008,14.12443151,.0014738,70.7634,342.3653,349.6242,10.4571,0,U,24298,999,53451,.96065E-4,.128E-5,0
ORBVIEW 2 (SEASTAR),1997-037A,2026-06-08T10:43:37.174656,14.35549090,.00029178,98.8682,326.2243,134.2669,225.8756,0,U,24883,999,52149,.10616035E-3,.259E-5,0
SL-16 R/B,1998-043G,2026-06-08T19:16:28.011936,14.26067314,.0010882,98.8360,113.8904,108.2440,251.9924,0,U,25400,999,45197,.43963E-4,.6E-6,0
SL-16 R/B,1998-045B,2026-06-08T19:56:07.995840,14.16204839,.0009528,71.0122,349.9043,251.8928,108.1158,0,U,25407,999,44000,.25641E-4,.3E-7,0
ISS (ZARYA),1998-067A,2026-06-08T19:17:55.071168,15.49672912,.0006923,51.6336,341.5878,148.5365,211.6039,0,U,25544,999,57045,.13425E-3,.7129E-4,0
CZ-4B R/B,1999-025C,2026-06-08T18:04:00.808032,14.18282081,.0038233,98.6487,201.8033,83.2046,28.3236,0,U,25732,999,40107,.48351E-4,.58E-6,0
OKEAN-O,1999-039A,2026-06-08T18:20:03.004224,14.80457847,.0001814,97.9317,218.6581,78.0536,282.0879,0,U,25860,999,44786,.94657E-4,.672E-5,0
SL-16 R/B,1999-039B,2026-06-08T17:25:28.145280,14.81837274,.0013968,97.9842,218.6129,326.5594,33.4736,0,U,25861,999,45034,.72045E-4,.516E-5,0
DELTA 2 R/B,1999-041E,2026-06-08T02:46:25.817376,14.12000165,.05009452,51.7662,300.0336,255.1992,99.2946,0,U,25876,999,37580,.17901315E-3,.878E-5,0
HELIOS 1B,1999-064A,2026-06-08T07:15:12.949344,14.87983530,.00023532,98.1622,64.1847,104.3150,255.8327,0,U,25977,999,69873,.17139565E-3,.1514E-4,0
TERRA,1999-068A,2026-06-08T19:31:13.558368,14.61096572,.0000972,97.9459,209.6913,228.7766,264.5397,0,U,25994,999,40838,.85954E-4,.378E-5,0
SL-16 R/B,2000-006B,2026-06-08T17:28:53.969088,14.15836508,.0015091,71.0032,266.4108,36.3041,323.9103,0,U,26070,999,36144,-.92777E-4,-.23E-5,0
TITAN 4B R/B,2000-047B,2026-06-08T18:45:09.828000,15.10149632,.0045575,67.9873,144.2329,295.6148,64.0296,0,U,26474,999,40666,.20924E-3,.3367E-4,0
ENVISAT,2002-009A,2026-06-08T20:01:51.258720,14.39062931,.000132,98.3831,111.3395,90.3943,323.3946,0,U,27386,999,27228,.42982E-4,.9E-6,0
IDEFIX & ARIANE 42P R/B,2002-021B,2026-06-08T19:25:33.867264,14.31078338,.0010624,98.5942,97.3834,281.4203,78.5787,0,U,27422,999,25705,.98607E-4,.216E-5,0
AQUA,2002-022A,2026-06-08T20:11:29.927904,14.62145663,.0001436,98.4272,128.9577,54.4030,1.9331,0,U,27424,999,28205,.16788E-3,.795E-5,0
CZ-4B R/B,2002-024C,2026-06-08T18:17:15.650880,14.14563149,.0051064,98.8702,212.6365,123.6867,346.1420,0,U,27432,999,24211,.4327E-4,.4E-6,0
MIDORI II (ADEOS-II),2002-056A,2026-06-08T19:23:19.452192,14.29345166,.0002224,98.7874,118.9967,88.5931,271.5505,0,U,27597,999,22331,.1214E-3,.264E-5,0
H-2A R/B,2002-056E,2026-06-08T18:40:33.240864,14.33818663,.0068909,98.3308,116.7594,250.0000,175.5320,0,U,27601,999,22716,.90302E-4,.215E-5,0
CZ-4B R/B,2003-049C,2026-06-08T11:57:27.650880,14.55094593,.00472853,98.6896,157.9988,315.7011,44.0405,0,U,28059,999,19980,.92064732E-4,.351E-5,0
CZ-2C R/B,2004-012C,2026-06-08T17:27:07.354080,15.77379087,.0008823,97.7080,234.4175,321.5566,38.5070,0,U,28222,999,21856,.59095E-3,.98208E-3,0
SL-16 R/B,2004-021B,2026-06-08T19:36:52.430400,14.14612006,.0007483,71.0021,41.2554,264.7502,95.2767,0,U,28353,999,13572,-.10052E-3,-.241E-5,0
CZ-4B R/B,2004-035C,2026-06-08T19:54:46.558656,15.30503861,.0030941,97.3375,192.9980,8.2010,351.9730,0,U,28415,999,19384,.27076E-3,.8026E-4,0
CZ-2C R/B,2004-046B,2026-06-08T11:55:42.384576,14.27024795,.01381499,98.1951,68.8204,246.1474,112.5178,0,U,28480,999,12145,.45413215E-4,.8E-6,0
ARIANE 5 R/B,2004-049H,2026-06-08T10:34:42.343104,14.85436979,.00849918,98.2717,331.3565,57.4922,303.4470,0,U,28499,999,15926,.92781037E-4,.789E-5,0
CZ-2D R/B,2005-024B,2026-06-08T19:13:51.508704,15.68649920,.0004652,97.3498,178.8163,71.6394,288.5374,0,U,28738,999,15402,.50677E-3,.57735E-3,0
ALOS (DAICHI),2006-002A,2026-06-08T18:52:30.119808,14.70034167,.0001758,98.1320,115.3804,60.8769,299.2612,0,U,28931,999,8686,.2005E-3,.1153E-4,0
H-2A R/B,2006-002B,2026-06-08T10:03:58.062528,15.17953556,.00496563,98.2559,314.4572,292.9318,66.6677,0,U,28932,999,10819,.26705489E-3,.5514E-4,0
RESURS-DK 1,2006-021A,2026-06-08T20:07:23.363040,15.13180390,.00065,69.9339,1.1642,298.4853,61.5658,0,U,29228,999,10131,.14051E-3,.2391E-4,0
CZ-4B R/B,2006-046C,2026-06-08T00:32:52.981152,15.17717799,.00314166,97.5454,203.6582,316.1729,43.7012,0,U,29507,999,7374,.22884961E-3,.4603E-4,0
CZ-2C R/B,2007-010B,2026-06-08T19:37:07.893408,14.20274361,.0059501,98.4091,268.5781,30.3258,330.1340,0,U,31114,999,99265,.5898E-4,.87E-6,0
