SL-16 R/B               
1 24298U 96051B   26159.81627647  .00000128  00000+0  96065-4 0  9990
2 24298  70.7634 342.3653 0014738 349.6242  10.4571 14.12443151534515
ORBVIEW 2 (SEASTAR)     
1 24883U 97037A   26159.44695804  .00000259  00000+0  10616-3 0  9996
2 24883  98.8682 326.2243 0002917 134.2669 225.8756 14.35549090521496
SL-16 R/B               
1 25400U 98043G   26159.80310199  .00000060  00000+0  43963-4 0  9993
2 25400  98.8360 113.8904 0010882 108.2440 251.9924 14.26067314451973
SL-16 R/B               
1 25407U 98045B   26159.83064810  .00000003  00000+0  25641-4 0  9991
2 25407  71.0122 349.9043 0009528 251.8928 108.1158 14.16204839440004
ISS (ZARYA)             
1 25544U 98067A   26159.80410962  .00007129  00000+0  13425-3 0  9999
2 25544  51.6336 341.5878 0006923 148.5365 211.6039 15.49672912570453
CZ-4B R/B               
1 25732U 99025C   26159.75278713  .00000058  00000+0  48351-4 0  9994
2 25732  98.6487 201.8033 0038233  83.2046  28.3236 14.18282081401073
OKEAN-O                 
1 25860U 99039A   26159.76392366  .00000672  00000+0  94657-4 0  9995
2 25860  97.9317 218.6581 0001814  78.0536 282.0879 14.80457847447866
SL-16 R/B               
1 25861U 99039B   26159.72602020  .00000516  00000+0  72045-4 0  9997
2 25861  97.9842 218.6129 0013968 326.5594  33.4736 14.81837274450340
DELTA 2 R/B             
1 25876U 99041E   26159.11557659  .00000878  00000+0  17901-3 0  9996
2 25876  51.7662 300.0336 0500945 255.1992  99.2946 14.12000165375800
HELIOS 1B               
1 25977U 99064A   26159.30223321  .00001514  00000+0  17140-3 0  9993
2 25977  98.1622  64.1847 0002353 104.3150 255.8327 14.87983530698730
TERRA                   
1 25994U 99068A   26159.81335137  .00000378  00000+0  85954-4 0  9997
2 25994  97.9459 209.6913 0000972 228.7766 264.5397 14.61096572408380
SL-16 R/B               
1 26070U 00006B   26159.72840242 -.00000230  00000+0 -92777-4 0  9995
2 26070  71.0032 266.4108 0015091  36.3041 323.9103 14.15836508361440
TITAN 4B R/B            
1 26474U 00047B   26159.78136375  .00003367  00000+0  20924-3 0  9995
2 26474  67.9873 144.2329 0045575 295.6148  64.0296 15.10149632406662
ENVISAT                 
1 27386U 02009A   26159.83462105  .00000090  00000+0  42982-4 0  9996
2 27386  98.3831 111.3395 0001320  90.3943 323.3946 14.39062931272286
IDEFIX & ARIANE 42P R/B 
1 27422U 02021B   26159.80941976  .00000216  00000+0  98607-4 0  9991
2 27422  98.5942  97.3834 0010624 281.4203  78.5787 14.31078338257052
AQUA                    
1 27424U 02022A   26159.84131861  .00000795  00000+0  16788-3 0  9993
2 27424  98.4272 128.9577 0001436  54.4030   1.9331 14.62145663282054
CZ-4B R/B               
1 27432U 02024C   26159.76198670  .00000040  00000+0  43270-4 0  9996
2 27432  98.8702 212.6365 0051064 123.6867 346.1420 14.14563149242116
MIDORI II (ADEOS-II)    
1 27597U 02056A   26159.80786403  .00000264  00000+0  12140-3 0  9994
2 27597  98.7874 118.9967 0002224  88.5931 271.5505 14.29345166223317
H-2A R/B                
1 27601U 02056E   26159.77816251  .00000215  00000+0  90302-4 0  9994
2 27601  98.3308 116.7594 0068909 250.0000 175.5320 14.33818663227165
CZ-4B R/B               
1 28059U 03049C   26159.49823670  .00000351  00000+0  92065-4 0  9996
2 28059  98.6896 157.9988 0047285 315.7011  44.0405 14.55094593199802
CZ-2C R/B               
1 28222U 04012C   26159.72716845  .00098208  00000+0  59095-3 0  9993
2 28222  97.7080 234.4175 0008823 321.5566  38.5070 15.77379087218563
SL-16 R/B               
1 28353U 04021B   26159.81727350 -.00000241  00000+0 -10052-3 0  9993
2 28353  71.0021  41.2554 0007483 264.7502  95.2767 14.14612006135722
CZ-4B R/B               
1 28415U 04035C   26159.82970554  .00008026  00000+0  27076-3 0  9995
2 28415  97.3375 192.9980 0030941   8.2010 351.9730 15.30503861193847
CZ-2C R/B               
1 28480U 04046B   26159.49701834  .00000080  00000+0  45413-4 0  9993
2 28480  98.1951  68.8204 0138149 246.1474 112.5178 14.27024795121458
ARIANE 5 R/B            
1 28499U 04049H   26159.44076786  .00000789  00000+0  92781-4 0  9998
2 28499  98.2717 331.3565 0084991  57.4922 303.4470 14.85436979159264
CZ-2D R/B               
1 28738U 05024B   26159.80129061  .00057735  00000+0  50677-3 0  9993
2 28738  97.3498 178.8163 0004652  71.6394 288.5374 15.68649920154020
ALOS (DAICHI)           
1 28931U 06002A   26159.78645972  .00001153  00000+0  20050-3 0  9991
2 28931  98.1320 115.3804 0001758  60.8769 299.2612 14.70034167 86869
H-2A R/B                
1 28932U 06002B   26159.41942202  .00005514  00000+0  26705-3 0  9996
2 28932  98.2559 314.4572 0049656 292.9318  66.6677 15.17953556108198
RESURS-DK 1             
1 29228U 06021A   26159.83846485  .00002391  00000+0  14051-3 0  9999
2 29228  69.9339   1.1642 0006500 298.4853  61.5658 15.13180390101316
CZ-4B R/B               
1 29507U 06046C   26159.02283543  .00004603  00000+0  22885-3 0  9999
2 29507  97.5454 203.6582 0031416 316.1729  43.7012 15.17717799 73741
CZ-2C R/B               
1 31114U 07010B   26159.81745247  .00000087  00000+0  58980-4 0  9997
2 31114  98.4091 268.5781 0059501  30.3258 330.1340 14.20274361992656
